{
  "type": "FeatureCollection",
  "name": "Mākslas muzejs RĪGAS BIRŽA - Building Footprint",
  "features": [
    {
      "type": "Feature",
      "id": 87493939,
      "properties": {},
      "geometry": {
        "type": "Polygon",
        "coordinates": [
          [
            [
              24.1045001,
              56.9499173
            ],
            [
              24.1046222,
              56.9501231
            ],
            [
              24.1045965,
              56.9502044
            ],
            [
              24.1046832,
              56.9502055
            ],
            [
              24.1047428,
              56.950206
            ],
            [
              24.1052624,
              56.9502543
            ],
            [
              24.1052612,
              56.9502443
            ],
            [
              24.1052743,
              56.9502441
            ],
            [
              24.1052732,
              56.9499564
            ],
            [
              24.1052627,
              56.9499565
            ],
            [
              24.1051869,
              56.949916
            ],
            [
              24.1051861,
              56.9499091
            ],
            [
              24.1046183,
              56.9499122
            ],
            [
              24.1045001,
              56.9499173
            ]
          ]
        ]
      }
    },
    {
      "type": "Feature",
      "id": 665689327,
      "properties": {},
      "geometry": {
        "type": "Polygon",
        "coordinates": [
          [
            [
              24.1047302,
              56.9501506
            ],
            [
              24.1047353,
              56.9500502
            ],
            [
              24.1047369,
              56.9500177
            ],
            [
              24.1049337,
              56.9500206
            ],
            [
              24.104927,
              56.9501535
            ],
            [
              24.1047643,
              56.9501511
            ],
            [
              24.1047302,
              56.9501506
            ]
          ]
        ]
      }
    }
  ]
}